52740,LEMUR-2-HANCOM-1,2022,93.48,-1.0,+,97.56,Active,0,LEO,USA,USA,Unknown,Unknown,Falcon,1 52740U 22057J   24020.30661648  .00060154  00000+0  14715-2 0  9991,2 52740  97.5629 147.0440 0005744 311.9472  48.1283 15.40568562 91935,15.40568562,0.0005744,LEO
55013,LEMUR-2-PHILARI,2023,93.92,10.0,+,97.45,Active,1,LEO,USA,USA,Commercial,Earth Observation,Falcon,1 55013U 23001E   24020.14308325  .00021295  00000+0  66390-3 0  9999,2 55013  97.4475  84.4438 0005660 339.3659  20.7353 15.33249544 58168,15.33249544,0.000566,LEO
55014,LEMUR-2-DISCLAIMER,2023,93.9,10.0,+,97.45,Active,1,LEO,USA,USA,Commercial,Earth Observation,Falcon,1 55014U 23001F   24020.11458637  .00050785  00000+0  15570-2 0  9998,2 55014  97.4509  84.3878 0007312 341.4255  18.6719 15.33582124 58140,15.33582124,0.0007312,LEO
55017,LEMUR-2-STEVEALBERS,2023,94.05,10.0,+,97.45,Active,1,LEO,USA,USA,Commercial,Earth Observation,Falcon,1 55017U 23001J   24020.17997337  .00036044  00000+0  11933-2 0  9993,2 55017  97.4467  83.8616 0006153 340.0132  20.0867 15.31208741 58139,15.31208741,0.0006153,LEO
55037,LEMUR-2-EMMACULATE,2023,93.47,10.0,+,97.45,Active,1,LEO,USA,USA,Commercial,Earth Observation,Falcon,1 55037U 23001AE  24020.17823031  .00077687  00000+0  18806-2 0  9998,2 55037  97.4525  86.3544 0008590 316.5119  43.5449 15.40788079 58272,15.40788079,0.000859,LEO
55038,LEMUR-2-MMOLO,2023,94.14,10.0,+,97.45,Active,1,LEO,USA,USA,Commercial,Earth Observation,Falcon,1 55038U 23001AF  24020.17782021  .00016045  00000+0  56017-3 0  9990,2 55038  97.4546  85.5251 0011620 326.3872  33.6630 15.29609192 58216,15.29609192,0.001162,LEO
55088,LEMUR-2-FUENTETAJA-01,2023,93.96,10.0,+,97.46,Active,1,LEO,USA,USA,Commercial,Earth Observation,Falcon,1 55088U 23001CH  24020.62729507  .00016793  00000+0  53336-3 0  9996,2 55088  97.4560  85.7452 0009847 319.8890  40.1624 15.32675676 58262,15.32675676,0.0009847,LEO
56182,LEMUR-2-ONREFLECTION,2023,93.92,10.0,+,97.37,Active,1,LEO,USA,USA,Commercial,Earth Observation,Falcon,1 56182U 23054E   24020.59836716  .00036222  00000+0  11199-2 0  9996,2 56182  97.3749 278.2908 0006749   4.0702 356.0594 15.33398198 43366,15.33398198,0.0006749,LEO
56206,LEMUR-2-ROMEO-N-LEO,2023,92.75,10.0,+,97.37,Active,1,LEO,USA,USA,Commercial,Earth Observation,Falcon,1 56206U 23054AE  24020.23392195  .00100162  00000+0  16014-2 0  9998,2 56206  97.3671 281.1005 0003934 342.1275  17.9839 15.52798669 43523,15.52798669,0.0003934,LEO
56970,LEMUR-2-EMBRIONOVIS,2023,94.94,-1.0,+,97.53,Active,0,LEO,USA,USA,Unknown,Unknown,Unknown,1 56970U 23084AQ  24020.27312801  .00014505  00000+0  73849-3 0  9994,2 56970  97.5327 139.6541 0014809 166.4549 193.7084 15.16814298 33528,15.16814298,0.0014809,LEO
56974,LEMUR-2-NAZIYAH,2023,94.59,-1.0,+,97.52,Active,0,LEO,USA,USA,Unknown,Unknown,Unknown,1 56974U 23084AU  24020.25955272  .00034292  00000+0  14784-2 0  9998,2 56974  97.5200 140.1326 0012338 157.6765 202.5010 15.22410931 33573,15.22410931,0.0012338,LEO
56977,LEMUR-2-AADAM-ALIYAH,2023,94.59,-1.0,+,97.52,Active,0,LEO,USA,USA,Unknown,Unknown,Unknown,1 56977U 23084AX  24020.32392496  .00034837  00000+0  15018-2 0  9998,2 56977  97.5225 140.2605 0012670 159.1858 200.9896 15.22405587 33589,15.22405587,0.001267,LEO
57390,LEMUR-2-MANO,2023,95.89,-1.0,+,99.49,Active,0,LEO,New Zealand,USA,Unknown,Unknown,Unknown,1 57390U 23100E   24020.43048937  .00010333  00000+0  79802-3 0  9994,2 57390  99.4869 191.0078 0014334  51.3727 308.8772 15.01728873 27935,15.01728873,0.0014334,LEO
57391,LEMUR-2-DEVERILL-M-T,2023,95.87,-1.0,+,99.47,Active,0,LEO,New Zealand,USA,Unknown,Unknown,Unknown,1 57391U 23100F   24020.45476602  .00010639  00000+0  81584-3 0  9990,2 57391  99.4696 190.9447 0014365  53.8314 306.4231 15.01988689 27943,15.01988689,0.0014365,LEO
58259,LEMUR-2-BASS,2023,95.08,-1.0,+,97.47,Active,0,LEO,USA,USA,Unknown,Unknown,Unknown,1 58259U 23174D   24020.16319272  .00011538  00000+0  62837-3 0  9991,2 58259  97.4708  96.8211 0013433  48.8486 311.3903 15.14500334 11104,15.14500334,0.0013433,LEO
58260,LEMUR-2-DILIGHTFUL,2023,95.03,-1.0,+,97.48,Active,0,LEO,USA,USA,Unknown,Unknown,Unknown,1 58260U 23174E   24020.54137004  .00018455  00000+0  97721-3 0  9991,2 58260  97.4776  97.2936 0012569  46.5608 313.6668 15.15401607 11163,15.15401607,0.0012569,LEO
58267,LEMUR-2-SANITA-VETRA,2023,95.01,-1.0,+,97.47,Active,0,LEO,USA,USA,Unknown,Unknown,Unknown,1 58267U 23174M   24020.46825947  .00018235  00000+0  96053-3 0  9992,2 58267  97.4706  97.1708 0011632  48.6779 311.5452 15.15598462 11154,15.15598462,0.0011632,LEO
58333,LEMUR-2-THE-CLEANER,2023,94.91,-1.0,+,97.47,Active,0,LEO,USA,USA,Unknown,Unknown,Unknown,1 58333U 23174CF  24020.19357475  .00018753  00000+0  94217-3 0  9997,2 58333  97.4707  97.0757 0010157  11.2927 348.8532 15.17274247 11127,15.17274247,0.0010157,LEO
58335,LEMUR-2-MANGO2A,2023,94.81,-1.0,+,97.47,Active,0,LEO,USA,USA,Unknown,Unknown,Unknown,1 58335U 23174CH  24020.48863995  .00039700  00000+0  18977-2 0  9993,2 58335  97.4706  97.4570 0010243   9.5706 350.5721 15.18846751 11177,15.18846751,0.0010243,LEO
58336,LEMUR-2-JK0903EM1407,2023,94.96,-1.0,+,97.47,Active,0,LEO,USA,USA,Unknown,Unknown,Unknown,1 58336U 23174CJ  24020.47511243  .00011471  00000+0  59276-3 0  9992,2 58336  97.4705  97.3136 0010105  12.7226 347.4260 15.16398165 11165,15.16398165,0.0010105,LEO
58337,LEMUR-2-MANGO2B,2023,94.81,-1.0,+,97.48,Active,0,LEO,USA,USA,Unknown,Unknown,Unknown,1 58337U 23174CK  24020.48787615  .00029370  00000+0  14065-2 0  9995,2 58337  97.4763  97.5088 0011132   9.7625 350.3823 15.18843487 11171,15.18843487,0.0011132,LEO
58340,LEMUR-2-MJR092620,2023,94.95,-1.0,+,97.48,Active,0,LEO,USA,USA,Unknown,Unknown,Unknown,1 58340U 23174CN  24020.20449386  .00011524  00000+0  59287-3 0  9997,2 58340  97.4767  97.1163 0011265  10.7542 349.3930 15.16544051 11121,15.16544051,0.0011265,LEO
