OBJECT_NAME,OBJECT_ID,EPOCH,MEAN_MOTION,ECCENTRICITY,INCLINATION,RA_OF_ASC_NODE,ARG_OF_PERICENTER,MEAN_ANOMALY,EPHEMERIS_TYPE,CLASSIFICATION_TYPE,NORAD_CAT_ID,ELEMENT_SET_NO,REV_AT_EPOCH,BSTAR,MEAN_MOTION_DOT,MEAN_MOTION_DDOT
LEMUR-2-HANCOM-1,2022-057J,2024-01-20T07:21:31.663872,15.40568562,.0005744,97.5629,147.0440,311.9472,48.1283,0,U,52740,999,9193,.14715E-2,.60154E-3,0
LEMUR-2-PHILARI,2023-001E,2024-01-20T03:26:02.392800,15.33249544,.000566,97.4475,84.4438,339.3659,20.7353,0,U,55013,999,5816,.6639E-3,.21295E-3,0
LEMUR-2-DISCLAIMER,2023-001F,2024-01-20T02:45:00.262368,15.33582124,.0007312,97.4509,84.3878,341.4255,18.6719,0,U,55014,999,5814,.1557E-2,.50785E-3,0
LEMUR-2-STEVEALBERS,2023-001J,2024-01-20T04:19:09.699168,15.31208741,.0006153,97.4467,83.8616,340.0132,20.0867,0,U,55017,999,5813,.11933E-2,.36044E-3,0
LEMUR-2-EMMACULATE,2023-001AE,2024-01-20T04:16:39.098784,15.40788079,.000859,97.4525,86.3544,316.5119,43.5449,0,U,55037,999,5827,.18806E-2,.77687E-3,0
LEMUR-2-MMOLO,2023-001AF,2024-01-20T04:16:03.666144,15.29609192,.001162,97.4546,85.5251,326.3872,33.6630,0,U,55038,999,5821,.56017E-3,.16045E-3,0
LEMUR-2-FUENTETAJA-01,2023-001CH,2024-01-20T15:03:18.294048,15.32675676,.0009847,97.4560,85.7452,319.8890,40.1624,0,U,55088,999,5826,.53336E-3,.16793E-3,0
LEMUR-2-ONREFLECTION,2023-054E,2024-01-20T14:21:38.922624,15.33398198,.0006749,97.3749,278.2908,4.0702,356.0594,0,U,56182,999,4336,.11199E-2,.36222E-3,0
LEMUR-2-ROMEO-N-LEO,2023-054AE,2024-01-20T05:36:50.856480,15.52798669,.0003934,97.3671,281.1005,342.1275,17.9839,0,U,56206,999,4352,.16014E-2,.100162E-2,0
LEMUR-2-EMBRIONOVIS,2023-084AQ,2024-01-20T06:33:18.260064,15.16814298,.0014809,97.5327,139.6541,166.4549,193.7084,0,U,56970,999,3352,.73849E-3,.14505E-3,0
LEMUR-2-NAZIYAH,2023-084AU,2024-01-20T06:13:45.355008,15.22410931,.0012338,97.5200,140.1326,157.6765,202.5010,0,U,56974,999,3357,.14784E-2,.34292E-3,0
LEMUR-2-AADAM-ALIYAH,2023-084AX,2024-01-20T07:46:27.116544,15.22405587,.001267,97.5225,140.2605,159.1858,200.9896,0,U,56977,999,3358,.15018E-2,.34837E-3,0
LEMUR-2-MANO,2023-100E,2024-01-20T10:19:54.281568,15.01728873,.0014334,99.4869,191.0078,51.3727,308.8772,0,U,57390,999,2793,.79802E-3,.10333E-3,0
LEMUR-2-DEVERILL-M-T,2023-100F,2024-01-20T10:54:51.784128,15.01988689,.0014365,99.4696,190.9447,53.8314,306.4231,0,U,57391,999,2794,.81584E-3,.10639E-3,0
LEMUR-2-BASS,2023-174D,2024-01-20T03:54:59.851008,15.14500334,.0013433,97.4708,96.8211,48.8486,311.3903,0,U,58259,999,1110,.62837E-3,.11538E-3,0
LEMUR-2-DILIGHTFUL,2023-174E,2024-01-20T12:59:34.371456,15.15401607,.0012569,97.4776,97.2936,46.5608,313.6668,0,U,58260,999,1116,.97721E-3,.18455E-3,0
LEMUR-2-SANITA-VETRA,2023-174M,2024-01-20T11:14:17.618208,15.15598462,.0011632,97.4706,97.1708,48.6779,311.5452,0,U,58267,999,1115,.96053E-3,.18235E-3,0
LEMUR-2-THE-CLEANER,2023-174CF,2024-01-20T04:38:44.858400,15.17274247,.0010157,97.4707,97.0757,11.2927,348.8532,0,U,58333,999,1112,.94217E-3,.18753E-3,0
LEMUR-2-MANGO2A,2023-174CH,2024-01-20T11:43:38.491680,15.18846751,.0010243,97.4706,97.4570,9.5706,350.5721,0,U,58335,999,1117,.18977E-2,.397E-3,0
LEMUR-2-JK0903EM1407,2023-174CJ,2024-01-20T11:24:09.713952,15.16398165,.0010105,97.4705,97.3136,12.7226,347.4260,0,U,58336,999,1116,.59276E-3,.11471E-3,0
LEMUR-2-MANGO2B,2023-174CK,2024-01-20T11:42:32.499360,15.18843487,.0011132,97.4763,97.5088,9.7625,350.3823,0,U,58337,999,1117,.14065E-2,.2937E-3,0
LEMUR-2-MJR092620,2023-174CN,2024-01-20T04:54:28.269504,15.16544051,.0011265,97.4767,97.1163,10.7542,349.3930,0,U,58340,999,1112,.59287E-3,.11524E-3,0
